GLOBALSTAR M063 [+]     
1 26081U 00008A   24063.86913750 -.00000045  00000+0  54546-3 0  9995
2 26081  51.9931 270.2032 0005367 125.3116 334.9965 11.86151716101764
GLOBALSTAR M062 [-]     
1 26082U 00008B   24063.33817537 -.00000080  00000+0  12947-3 0  9992
2 26082  51.9859  40.3633 0006979 185.0545 322.8479 12.43430038438047
GLOBALSTAR M060 [-]     
1 26083U 00008C   24063.87085141 -.00000073  00000+0  18129-3 0  9990
2 26083  52.0021 292.2735 0002512 248.6542 197.8868 12.17626914 95079
GLOBALSTAR M064 [-]     
1 26084U 00008D   24063.18261426 -.00000072  00000+0  15597-3 0  9992
2 26084  52.0056  16.3890 0001119 229.5547 130.5188 11.88515797111093
GLOBALSTAR M065 [+]     
1 31571U 07020A   24063.61266755 -.00000055  00000+0  27457-3 0  9997
2 31571  51.9873 218.4897 0009960 349.5027  90.2312 12.61963823773998
GLOBALSTAR M069 [+]     
1 31573U 07020C   24063.63819432 -.00000081  00000+0  12662-3 0  9998
2 31573  51.9942 174.3755 0001330 132.0423 334.6717 12.62257363775125
GLOBALSTAR M072 [+]     
1 31574U 07020D   24063.87047986 -.00000072  00000+0  17522-3 0  9992
2 31574  52.0067 269.5120 0001293  79.0267  23.9813 12.62268459773427
GLOBALSTAR M071 [P]     
1 31576U 07020F   24063.50013810 -.00000077  00000+0  15032-3 0  9992
2 31576  52.0057 179.8776 0001753 141.5760 297.6238 12.62268049436299
